CCSDS_OMM_VERS,COMMENT,CREATION_DATE,ORIGINATOR,OBJECT_NAME,OBJECT_ID,CENTER_NAME,REF_FRAME,TIME_SYSTEM,MEAN_ELEMENT_THEORY,EPOCH,MEAN_MOTION,ECCENTRICITY,INCLINATION,RA_OF_ASC_NODE,ARG_OF_PERICENTER,MEAN_ANOMALY,EPHEMERIS_TYPE,CLASSIFICATION_TYPE,NORAD_CAT_ID,ELEMENT_SET_NO,REV_AT_EPOCH,BSTAR,MEAN_MOTION_DOT,MEAN_MOTION_DDOT,SEMIMAJOR_AXIS,PERIOD,APOAPSIS,PERIAPSIS,OBJECT_TYPE,RCS_SIZE,COUNTRY_CODE,LAUNCH_DATE,SITE,DECAY_DATE,FILE,GP_ID,TLE_LINE0,TLE_LINE1,TLE_LINE2
2,GENERATED VIA SPACE-TRACK.ORG API,2020-07-08T14:36:09,18 SPCS,LEASAT 5,1990-002B,EARTH,TEME,UTC,SGP4,2020-07-08T09:27:25.086240,0.99593435,0.0008263,11.7035,3.4871,26.5533,147.843,0,U,20410,999,9680,0.0,-2.7e-06,0,42355.976,1445.878,36012.84,35942.842,PAYLOAD,LARGE,US,1990-01-09,AFETR,,2781365,157150740,0 LEASAT 5,1 20410U 90002B   20190.39404035 -.00000270  00000-0  00000+0 0  9997,2 20410  11.7035   3.4871 0008263  26.5533 147.8430  0.99593435 96809
2,GENERATED VIA SPACE-TRACK.ORG API,2020-07-09T16:47:39,18 SPCS,LEASAT 5,1990-002B,EARTH,TEME,UTC,SGP4,2020-07-09T09:33:52.039008,0.9959294,0.0008255,11.7032,3.4806,26.7339,147.8144,0,U,20410,999,9682,0.0,-2.51e-06,0,42356.117,1445.885,36012.946,35943.017,PAYLOAD,LARGE,US,1990-01-09,AFETR,,2782089,157215397,0 LEASAT 5,1 20410U 90002B   20191.39851897 -.00000251 +00000-0 +00000-0 0  9990,2 20410 011.7032 003.4806 0008255 026.7339 147.8144 00.99592940096825
2,GENERATED VIA SPACE-TRACK.ORG API,2020-07-10T14:26:10,18 SPCS,LEASAT 5,1990-002B,EARTH,TEME,UTC,SGP4,2020-07-10T09:40:17.879808,0.99592463,0.0008247,11.7029,3.474,26.9381,147.7558,0,U,20410,999,9682,0.0,-2.3e-06,0,42356.252,1445.892,36013.048,35943.186,PAYLOAD,LARGE,US,1990-01-09,AFETR,,2782577,157280188,0 LEASAT 5,1 20410U 90002B   20192.40298472 -.00000230  00000-0  00000+0 0  9993,2 20410  11.7029   3.4740 0008247  26.9381 147.7558  0.99592463 96826
2,GENERATED VIA SPACE-TRACK.ORG API,2020-07-11T16:58:06,18 SPCS,LEASAT 5,1990-002B,EARTH,TEME,UTC,SGP4,2020-07-11T09:46:43.172832,0.99591996,0.0008233,11.7026,3.4675,27.1633,147.6715,0,U,20410,999,9684,0.0,-2.08e-06,0,42356.384,1445.899,36013.121,35943.377,PAYLOAD,LARGE,US,1990-01-09,AFETR,,2783284,157341902,0 LEASAT 5,1 20410U 90002B   20193.40744413 -.00000208 +00000-0 +00000-0 0  9991,2 20410 011.7026 003.4675 0008233 027.1633 147.6715 00.99591996096844
2,GENERATED VIA SPACE-TRACK.ORG API,2020-07-12T01:45:18,18 SPCS,LEASAT 5,1990-002B,EARTH,TEME,UTC,SGP4,2020-07-11T18:34:20.831808,0.99591837,0.0008232,11.7025,3.4651,27.1674,279.04,0,U,20410,999,9684,0.0,-2e-06,0,42356.429,1445.901,36013.162,35943.426,PAYLOAD,LARGE,US,1990-01-09,AFETR,,2783443,157365078,0 LEASAT 5,1 20410U 90002B   20193.77385222 -.00000200 +00000-0 +00000-0 0  9992,2 20410 011.7025 003.4651 0008232 027.1674 279.0400 00.99591837096846
2,GENERATED VIA SPACE-TRACK.ORG API,2020-07-12T16:33:47,18 SPCS,LEASAT 5,1990-002B,EARTH,TEME,UTC,SGP4,2020-07-11T21:54:42.571872,0.99591779,0.0008236,11.7025,3.4642,27.2055,328.8895,0,U,20410,999,9684,0.0,-1.97e-06,0,42356.446,1445.902,36013.195,35943.426,PAYLOAD,LARGE,US,1990-01-09,AFETR,,2783447,157407187,0 LEASAT 5,1 20410U 90002B   20193.91299273 -.00000197 +00000-0 +00000-0 0  9993,2 20410 011.7025 003.4642 0008236 027.2055 328.8895 00.99591779096840
2,GENERATED VIA SPACE-TRACK.ORG API,2020-07-13T02:03:13,18 SPCS,LEASAT 5,1990-002B,EARTH,TEME,UTC,SGP4,2020-07-12T09:53:09.066336,0.99591577,0.0008217,11.7023,3.461,27.3944,147.583,0,U,20410,999,9685,0.0,-1.86e-06,0,42356.503,1445.905,36013.172,35943.564,PAYLOAD,LARGE,US,1990-01-09,AFETR,,2783761,157431653,0 LEASAT 5,1 20410U 90002B   20194.41191049 -.00000186 +00000-0 +00000-0 0  9999,2 20410 011.7023 003.4610 0008217 027.3944 147.5830 00.99591577096852
2,GENERATED VIA SPACE-TRACK.ORG API,2020-07-13T06:56:10,18 SPCS,LEASAT 5,1990-002B,EARTH,TEME,UTC,SGP4,2020-07-12T22:39:19.670688,0.99591353,0.0008218,11.7022,3.4575,27.4629,338.2814,0,U,20410,999,9685,0.0,-1.73e-06,0,42356.566,1445.908,36013.24,35943.623,PAYLOAD,LARGE,US,1990-01-09,AFETR,,2784017,157451269,0 LEASAT 5,1 20410U 90002B   20194.94397767 -.00000173  00000-0  00000+0 0  9997,2 20410  11.7022   3.4575 0008218  27.4629 338.2814  0.99591353 96856
2,GENERATED VIA SPACE-TRACK.ORG API,2020-07-13T16:28:44,18 SPCS,LEASAT 5,1990-002B,EARTH,TEME,UTC,SGP4,2020-07-13T09:59:35.295072,0.9959117,0.0008196,11.7021,3.4544,27.6388,147.4803,0,U,20410,999,9686,0.0,-1.63e-06,0,42356.618,1445.911,36013.199,35943.768,PAYLOAD,LARGE,US,1990-01-09,AFETR,,2784508,157466153,0 LEASAT 5,1 20410U 90002B   20195.41638073 -.00000163 +00000-0 +00000-0 0  9998,2 20410 011.7021 003.4544 0008196 027.6388 147.4803 00.99591170096866
2,GENERATED VIA SPACE-TRACK.ORG API,2020-07-14T01:19:07,18 SPCS,LEASAT 5,1990-002B,EARTH,TEME,UTC,SGP4,2020-07-13T19:58:39.919008,0.99591023,0.0008193,11.7019,3.4517,27.6718,296.6089,0,U,20410,999,9686,0.0,-1.54e-06,0,42356.66,1445.913,36013.228,35943.822,PAYLOAD,LARGE,US,1990-01-09,AFETR,,2784613,157487668,0 LEASAT 5,1 20410U 90002B   20195.83240647 -.00000154 +00000-0 +00000-0 0  9990,2 20410 011.7019 003.4517 0008193 027.6718 296.6089 00.99591023096867
2,GENERATED VIA SPACE-TRACK.ORG API,2020-07-14T20:50:09,18 SPCS,LEASAT 5,1990-002B,EARTH,TEME,UTC,SGP4,2020-07-14T10:06:07.302240,0.99590814,0.000817,11.7018,3.4479,27.8829,147.4012,0,U,20410,999,9687,0.0,-1.4e-06,0,42356.719,1445.916,36013.19,35943.979,PAYLOAD,LARGE,US,1990-01-09,AFETR,,2785059,157520276,0 LEASAT 5,1 20410U 90002B   20196.42091785 -.00000140 +00000-0 +00000-0 0  9998,2 20410 011.7018 003.4479 0008170 027.8829 147.4012 00.99590814096870
2,GENERATED VIA SPACE-TRACK.ORG API,2020-07-15T14:26:10,18 SPCS,LEASAT 5,1990-002B,EARTH,TEME,UTC,SGP4,2020-07-15T10:22:42.885120,0.99590482,0.0008141,11.7015,3.4413,28.1183,149.8339,0,U,20410,999,9687,0.0,-1.17e-06,0,42356.813,1445.921,36013.161,35944.196,PAYLOAD,LARGE,US,1990-01-09,AFETR,,2785440,157584031,0 LEASAT 5,1 20410U 90002B   20197.43244080 -.00000117  00000-0  00000+0 0  9991,2 20410  11.7015   3.4413 0008141  28.1183 149.8339  0.99590482 96879
2,GENERATED VIA SPACE-TRACK.ORG API,2020-07-16T18:18:14,18 SPCS,LEASAT 5,1990-002B,EARTH,TEME,UTC,SGP4,2020-07-16T10:42:42.594048,0.99590189,0.0008108,11.7012,3.4347,28.3376,153.1286,0,U,20410,999,9689,0.0,-9.5e-07,0,42356.897,1445.925,36013.104,35944.419,PAYLOAD,LARGE,US,1990-01-09,AFETR,,2786136,157644392,0 LEASAT 5,1 20410U 90002B   20198.44632632 -.00000095 +00000-0 +00000-0 0  9993,2 20410 011.7012 003.4347 0008108 028.3376 153.1286 00.99590189096896
2,GENERATED VIA SPACE-TRACK.ORG API,2020-07-17T14:26:09,18 SPCS,LEASAT 5,1990-002B,EARTH,TEME,UTC,SGP4,2020-07-17T10:25:21.658944,0.99589946,0.000807,11.7009,3.4282,28.5355,147.1459,0,U,20410,999,9689,0.0,-7.4e-07,0,42356.965,1445.929,36013.012,35944.648,PAYLOAD,LARGE,US,1990-01-09,AFETR,,2786579,157690142,0 LEASAT 5,1 20410U 90002B   20199.43427846 -.00000074  00000-0  00000+0 0  9998,2 20410  11.7009   3.4282 0008070  28.5355 147.1459  0.99589946 96891
2,GENERATED VIA SPACE-TRACK.ORG API,2020-07-18T18:52:27,18 SPCS,LEASAT 5,1990-002B,EARTH,TEME,UTC,SGP4,2020-07-18T10:31:46.918272,0.99589752,0.0008029,11.7007,3.4215,28.7002,147.1145,0,U,20410,999,9691,0.0,-5.5e-07,0,42357.02,1445.931,36012.894,35944.877,PAYLOAD,LARGE,US,1990-01-09,AFETR,,2787290,157754032,0 LEASAT 5,1 20410U 90002B   20200.43873748 -.00000055 +00000-0 +00000-0 0  9997,2 20410 011.7007 003.4215 0008029 028.7002 147.1145 00.99589752096910
2,GENERATED VIA SPACE-TRACK.ORG API,2020-07-19T14:26:09,18 SPCS,LEASAT 5,1990-002B,EARTH,TEME,UTC,SGP4,2020-07-19T10:38:18.004416,0.99589594,0.0007983,11.7005,3.4149,28.8317,147.1396,0,U,20410,999,9691,0.0,-3.6e-07,0,42357.065,1445.934,36012.744,35945.117,PAYLOAD,LARGE,US,1990-01-09,AFETR,,2787662,157796477,0 LEASAT 5,1 20410U 90002B   20201.44326394 -.00000036  00000-0  00000+0 0  9997,2 20410  11.7005   3.4149 0007983  28.8317 147.1396  0.99589594 96914
2,GENERATED VIA SPACE-TRACK.ORG API,2020-07-20T02:00:18,18 SPCS,LEASAT 5,1990-002B,EARTH,TEME,UTC,SGP4,2020-07-19T22:25:40.671264,0.99589541,0.0007956,11.7004,3.4116,28.8786,323.2172,0,U,20410,999,9692,0.0,-2.7e-07,0,42357.08,1445.934,36012.645,35945.246,PAYLOAD,LARGE,US,1990-01-09,AFETR,,2787997,157849029,0 LEASAT 5,1 20410U 90002B   20201.93449851 -.00000027 +00000-0 +00000-0 0  9996,2 20410 011.7004 003.4116 0007956 028.8786 323.2172 00.99589541096929
2,GENERATED VIA SPACE-TRACK.ORG API,2020-07-22T01:29:23,18 SPCS,LEASAT 5,1990-002B,EARTH,TEME,UTC,SGP4,2020-07-21T11:10:42.756960,0.99589426,0.0007895,11.7,3.4014,28.9626,152.1457,0,U,20410,999,9694,0.0,-2e-08,0,42357.113,1445.936,36012.419,35945.537,PAYLOAD,LARGE,US,1990-01-09,AFETR,,2789023,157972620,0 LEASAT 5,1 20410U 90002B   20203.46577265 -.00000002 +00000-0 +00000-0 0  9990,2 20410 011.7000 003.4014 0007895 028.9626 152.1457 00.99589426096947
2,GENERATED VIA SPACE-TRACK.ORG API,2020-07-22T01:06:09,18 SPCS,LEASAT 5,1990-002B,EARTH,TEME,UTC,SGP4,2020-07-21T18:46:22.219104,0.99589411,0.0007884,11.6999,3.3994,29.0082,265.5503,0,U,20410,999,9694,0.0,3e-08,0,42357.117,1445.936,36012.376,35945.588,PAYLOAD,LARGE,US,1990-01-09,AFETR,,2788976,157966999,0 LEASAT 5,1 20410U 90002B   20203.78220161  .00000003  00000-0  00000+0 0  9994,2 20410  11.6999   3.3994 0007884  29.0082 265.5503  0.99589411 96940
2,GENERATED VIA SPACE-TRACK.ORG API,2020-07-22T19:01:38,18 SPCS,LEASAT 5,1990-002B,EARTH,TEME,UTC,SGP4,2020-07-22T10:57:32.573664,0.99589404,0.000786,11.6997,3.3949,28.9501,147.4122,0,U,20410,999,9695,0.0,1.3e-07,0,42357.119,1445.936,36012.277,35945.691,PAYLOAD,LARGE,US,1990-01-09,AFETR,,2789600,158005452,0 LEASAT 5,1 20410U 90002B   20204.45662701 +.00000013 +00000-0 +00000-0 0  9991,2 20410 011.6997 003.3949 0007860 028.9501 147.4122 00.99589404096954
